satname,norad_id,inclination_deg,eccentricity,mean_motion_rev_per_day,perigee_km,apogee_km,l1,l2
STARLINK-1168,45072,53.0523,0.0001359,15.06396089,546.282388117912,548.1647011139385,1 45072U 20006AE  25299.83901714  .00000678  00000+0  64395-4 0  9997,2 45072  53.0523 147.4977 0001359  87.7703 272.3442 15.06396089316569
STARLINK-1172,45074,53.0543,0.000176,15.06392229,546.0165094984295,548.4542405744414,1 45074U 20006AG  25299.78371961  .00000697  00000+0  65683-4 0  9990,2 45074  53.0543 147.7474 0001760  89.0193 271.0997 15.06392229316554
STARLINK-1153,45080,53.0523,0.0001374,15.06382249,546.3144123638285,548.2175130979876,1 45080U 20006AN  25299.82795416 -.00000596  00000+0 -21120-4 0  9995,2 45080  53.0523 147.5478 0001374  88.1902 271.9245 15.06382249316567
STARLINK-1151,45081,53.0524,0.0001543,15.06390523,546.1720179663598,548.3091894948711,1 45081U 20006AP  25299.87956675  .00000314  00000+0  39999-4 0  9996,2 45081  53.0524 147.3909 0001543  92.2035 267.9131 15.06390523316571
STARLINK-1190,45083,53.041,0.0003006,15.87476919,307.34914376373035,311.3696666025271,1 45083U 20006AR  25299.91670139  .00321293  00000+0  11478-2 0  9993,2 45083  53.0410 100.6151 0003006 215.2084  51.5867 15.87476919  5958
STARLINK-1173,45084,53.0327,0.0007542,16.1825549,219.3130904225536,229.27219529584272,1 45084U 20006AS  25299.84619819  .01445922  11780-4  82905-3 0  9997,2 45084  53.0327  60.5972 0007542 342.0422  18.0347 16.18255490317787
STARLINK-1185,45087,53.0536,0.0001353,15.06396865,546.2841653185214,548.1581672383154,1 45087U 20006AV  25299.78925587  .00000203  00000+0  32511-4 0  9990,2 45087  53.0536 127.7183 0001353  91.0229 269.0915 15.06396865316845
STARLINK-1183,45088,53.0536,0.0001215,15.06396823,546.3798639699762,548.0627260356623,1 45088U 20006AW  25299.81136852  .00000223  00000+0  33858-4 0  9991,2 45088  53.0536 127.6225 0001215  90.7568 269.3560 15.06396823316844
STARLINK-1176,45090,53.0411,0.0008142,16.09222217,243.58201728052063,254.3736110439031,1 45090U 20006AY  25299.59156067  .00855068  41436-3  93100-3 0  9991,2 45090  53.0411  60.6788 0008142 350.3111   9.7764 16.09222217317767
STARLINK-1142,45093,53.0342,0.0003145,15.59816355,386.06010833301843,390.3161268319782,1 45093U 20006BB  25299.91670139  .00134791  00000+0  16275-2 0  9999,2 45093  53.0342  62.1982 0003145 318.5606  66.7070 15.59816355  5863
STARLINK-1152,45096,53.0503,0.0008284,15.23434186,489.79718502666674,501.1854123919684,1 45096U 20006BE  25299.73830493  .00058040  00000+0  23985-2 0  9991,2 45096  53.0503 110.7420 0008284 148.8263 211.3226 15.23434186317073
STARLINK-1184,45098,53.0546,0.0001528,15.0640098,546.1503615803422,548.2667471817613,1 45098U 20006BG  25299.82612012  .00000450  00000+0  49108-4 0  9997,2 45098  53.0546 127.5558 0001528 103.9069 256.2090 15.06400980316847
STARLINK-1193,45100,53.054,0.0001485,15.06400007,546.1831222266173,548.2399507419532,1 45100U 20006BJ  25299.82242464  .00000262  00000+0  36495-4 0  9997,2 45100  53.0540 127.5715 0001485  86.4633 273.6525 15.06400007316840
STARLINK-1143,45179,53.0541,0.0007008,15.39828667,441.83273358094175,451.3983067131785,1 45179U 20012B   25299.84558410  .00024828  00000+0  62394-3 0  9993,2 45179  53.0541 252.2716 0007008  22.2226 337.9080 15.39828667315163
STARLINK-1202,45183,53.0548,0.0001519,15.06396237,546.1711288174884,548.2750532131395,1 45183U 20012F   25299.68604633  .00001806  00000+0  14012-3 0  9994,2 45183  53.0548 288.1865 0001519  82.7341 277.3821 15.06396237314647
STARLINK-1216,45185,53.0559,0.0001348,15.06391663,546.3035693303791,548.1706501903709,1 45185U 20012H   25299.28059779  .00000190  00000+0  31687-4 0  9990,2 45185  53.0559 290.0057 0001348  86.4311 273.6832 15.06391663314520
STARLINK-1225,45187,53.055,0.0001172,15.06393581,546.4195781619201,548.0428844753424,1 45187U 20012K   25299.29901635  .00000067  00000+0  23406-4 0  9993,2 45187  53.0550 289.9204 0001172  93.2397 266.8726 15.06393581314571
STARLINK-1230,45189,53.0554,0.0001632,15.06398894,546.0847302331986,548.3451651089181,1 45189U 20012M   25299.70078330  .00001552  00000+0  12305-3 0  9993,2 45189  53.0554 288.1205 0001632  87.4749 272.6427 15.06398894311860
STARLINK-1234,45190,53.0537,0.0001646,15.35239519,459.0835581710271,461.3347417235891,1 45190U 20012N   25299.91670139  .00087889  00000+0  25138-2 0  9997,2 45190  53.0537 245.0956 0001646  86.8887 239.4488 15.35239519  5687
STARLINK-1269,45197,53.0546,0.0001411,15.06403628,546.2232735505258,548.1776037757172,1 45197U 20012V   25299.71184204  .00002479  00000+0  18523-3 0  9998,2 45197  53.0546 288.0719 0001411  88.4491 271.6660 15.06403628314615
STARLINK-1154,45198,53.0546,0.0002153,15.06406126,545.7017591919957,548.6838061964245,1 45198U 20012W   25299.30454604 -.00002326  00000+0 -13725-3 0  9990,2 45198  53.0546 269.8985 0002153 128.8558 231.2623 15.06406126314803
STARLINK-1199,45201,53.0545,0.0001479,15.06399237,546.1896370267914,548.2381558219531,1 45201U 20012Z   25299.31561056  .00004814  00000+0  34184-3 0  9990,2 45201  53.0545 269.8477 0001479  83.4142 276.7015 15.06399237314867
STARLINK-1209,45206,53.0552,0.0001967,15.3007628,474.236372910771,476.9326269488447,1 45206U 20012AE  25299.83460253  .00018273  00000+0  62989-3 0  9997,2 45206  53.0552 245.8992 0001967  86.8323 273.2902 15.30076280314297
STARLINK-1210,45207,53.0248,0.0012805,15.5538657,392.3484285755985,409.7098730878788,1 45207U 20012AF  25299.91670139  .00097113  00000+0  13881-2 0  9999,2 45207  53.0248 208.6120 0012805  50.6290 162.1686 15.55386570  5919
STARLINK-1231,45212,53.0522,0.0005779,15.11890722,526.4417723323268,534.4266989664902,1 45212U 20012AL  25299.61502396  .00037848  00000+0  21907-2 0  9998,2 45212  53.0522 267.0376 0005779  26.4470 333.6816 15.11890722314885
STARLINK-1271,45217,53.0562,0.0001781,15.06405492,545.9613242200448,548.4281273807746,1 45217U 20012AR  25299.63259786  .00000595  00000+0  58818-4 0  9999,2 45217  53.0562 268.4247 0001781  87.9313 272.1879 15.06405492314913
STARLINK-1191,45222,53.0547,0.0001579,15.06388672,546.1527588249019,548.3397948637294,1 45222U 20012AW  25299.24373611 -.00000962  00000+0 -45713-4 0  9996,2 45222  53.0547 250.1696 0001579  91.2886 268.8284 15.06388672315133
STARLINK-1212,45223,53.0544,0.0001599,15.0640001,546.1041640602043,548.3188905192328,1 45223U 20012AX  25299.26225524  .00004403  00000+0  31429-3 0  9998,2 45223  53.0544 250.7412 0001599  93.2610 266.8562 15.06400010315130
STARLINK-1215,45225,53.0544,0.0001514,15.06396481,546.1738437828853,548.2708425920036,1 45225U 20012AZ  25299.28428906  .00002631  00000+0  19550-3 0  9993,2 45225  53.0544 249.9871 0001514  86.7248 273.3914 15.06396481315097
STARLINK-1221,45227,53.0658,0.0001826,15.36558975,455.04585916400265,457.5417933017425,1 45227U 20012BB  25299.83194051  .00015998  00000+0  45156-3 0  9998,2 45227  53.0658 181.3453 0001826 337.8203  22.2720 15.36558975316095
STARLINK-1222,45228,53.0542,0.0001335,15.06398641,546.2911884921459,548.140257669208,1 45228U 20012BC  25299.84822875 -.00000360  00000+0 -52782-5 0  9996,2 45228  53.0542 247.4550 0001335  94.5643 265.5498 15.06398641315115
STARLINK-1226,45229,53.0547,0.0001631,15.06402628,546.0739804723662,548.3330265446102,1 45229U 20012BD  25299.28059260  .00000245  00000+0  35354-4 0  9990,2 45229  53.0547 250.0034 0001631  89.8229 270.2946 15.06402628315037
STARLINK-1227,45230,53.0536,0.0001354,15.06392069,546.2981699316733,548.1735609036277,1 45230U 20012BE  25299.27691510  .00003767  00000+0  27171-3 0  9990,2 45230  53.0536 250.0190 0001354 102.7229 257.3911 15.06392069315155
STARLINK-1246,45235,53.0544,0.0001356,15.06402679,546.2642710502123,548.1424233523721,1 45235U 20012BK  25299.68972772  .00004140  00000+0  29664-3 0  9997,2 45235  53.0544 288.1671 0001356  85.3548 274.7596 15.06402679314663
STARLINK-1270,45237,53.0542,0.0001128,15.06382901,546.4827791775024,548.0451496350715,1 45237U 20012BM  25299.56073786 -.00000859  00000+0 -38821-4 0  9994,2 45237  53.0542 248.7467 0001128  85.9192 274.1926 15.06382901315180
STARLINK-1279,45360,53.0536,9.46e-05,15.33347355,465.1862730868015,466.4811523456465,1 45360U 20019A   25299.91670139  .00024140  00000+0  74762-3 0  9992,2 45360  53.0536  15.4523 0000946  46.6700 101.4820 15.33347355  5734
STARLINK-1301,45361,53.0524,0.0001311,15.35700798,457.9433960786155,459.7360513755766,1 45361U 20019B   25299.91670139  .00022325  00000+0  64279-3 0  9998,2 45361  53.0524  25.2607 0001311  47.1789 264.8752 15.35700798  5749
STARLINK-1306,45362,53.0482,0.0006201,15.67751978,361.15406327300025,369.5173181039918,1 45362U 20019C   25299.91670139  .00037818  00000+0  34160-3 0  9998,2 45362  53.0482  16.5054 0006201 278.7960 330.3577 15.67751978  5945
STARLINK-1262,45366,53.0557,0.0001316,15.06367175,546.4007745525378,548.2235527724133,1 45366U 20019G   25299.73767400 -.00002052  00000+0 -11901-3 0  9992,2 45366  53.0557  47.9488 0001316  94.6346 265.4793 15.06367175309542
STARLINK-1273,45367,53.056,0.0001338,15.06385783,546.3285138711763,548.1817488055221,1 45367U 20019H   25299.62706682  .00000166  00000+0  30018-4 0  9999,2 45367  53.0560  48.4482 0001338  94.0204 266.0938 15.06385783309529
STARLINK-1276,45368,53.0551,0.0001399,15.06403826,546.2309772013696,548.168686446913,1 45368U 20019J   25299.79662933  .00007873  00000+0  54677-3 0  9996,2 45368  53.0551  47.6879 0001399  84.1387 275.9762 15.06403826309556
STARLINK-1277,45369,53.0561,8.9e-05,15.06390723,546.6236322008845,547.8563493052388,1 45369U 20019K   25299.78932778 -.00000640  00000+0 -24080-4 0  9996,2 45369  53.0561  48.3467 0000890 107.7766 252.3320 15.06390723309546
STARLINK-1281,45370,53.0546,0.0001486,15.06388977,546.2162302356564,548.2744538677143,1 45370U 20019L   25299.71921584  .00000364  00000+0  43314-4 0  9996,2 45370  53.0546  48.0361 0001486  80.4748 279.6409 15.06388977309548
